OBJECT_NAME,OBJECT_ID,EPOCH,MEAN_MOTION,ECCENTRICITY,INCLINATION,RA_OF_ASC_NODE,ARG_OF_PERICENTER,MEAN_ANOMALY,EPHEMERIS_TYPE,CLASSIFICATION_TYPE,NORAD_CAT_ID,ELEMENT_SET_NO,REV_AT_EPOCH,BSTAR,MEAN_MOTION_DOT,MEAN_MOTION_DDOT
STARLINK-37649,2026-114W,2026-06-04T06:00:04.000320,15.85953047,.00010767,53.1575,266.9389,66.0571,77.6145,0,U,69202,999,273,-.79109186E-2,-.172218E-1,0
STARLINK-37604,2026-114X,2026-06-04T06:00:04.000320,15.86078450,.00010002,53.1575,266.9312,79.5251,67.8221,0,U,69203,999,273,-.78558791E-2,-.172093E-1,0
STARLINK-37669,2026-114Y,2026-06-04T06:00:04.000320,15.86198946,.0001017,53.1575,266.9233,74.5924,76.4663,0,U,69204,999,273,-.78263546E-2,-.1724193E-1,0
STARLINK-37691,2026-114Z,2026-06-04T06:00:04.000320,15.86572163,.00009386,53.1575,266.9003,78.9544,83.0854,0,U,69205,999,273,-.772091E-2,-.1731448E-1,0
STARLINK-37671,2026-114AA,2026-06-04T06:00:04.000320,15.86452317,.00009755,53.1574,266.9080,76.2803,82.0937,0,U,69206,999,273,-.77624845E-2,-.1730626E-1,0
STARLINK-37647,2026-114AB,2026-06-04T06:00:04.000320,15.86307147,.00011374,53.1575,266.9153,77.2239,77.6104,0,U,69207,999,273,-.78075246E-2,-.1728688E-1,0
STARLINK-37562,2026-114AC,2026-06-04T06:00:04.000320,15.86670101,.00009216,53.1575,266.8925,75.0626,90.6537,0,U,69208,999,273,-.75737916E-2,-.1710109E-1,0
STARLINK-37682,2026-114AD,2026-06-04T06:00:04.000320,15.86820006,.00011029,53.1575,266.8848,74.7066,94.5830,0,U,69209,999,273,-.76214086E-2,-.1730639E-1,0
STARLINK-37402,2026-114AE,2026-06-04T06:00:04.000320,15.86960852,.00009085,53.1572,266.8779,75.4833,97.2721,0,U,69210,999,273,-.75568565E-2,-.1728233E-1,0
STARLINK-37613,2026-115A,2026-06-04T06:00:04.000320,15.80819184,.00008963,97.2833,171.9876,101.2991,218.3585,0,U,69211,999,261,.1884754E-3,.36114E-3,0
STARLINK-37713,2026-115B,2026-06-04T06:00:04.000320,15.80823963,.00015455,97.2827,171.9885,101.7519,219.5708,0,U,69212,999,261,.29763093E-4,.5565E-4,0
STARLINK-37716,2026-115C,2026-06-04T06:00:04.000320,15.80804850,.00012699,97.2832,171.9869,97.3896,219.6566,0,U,69213,999,261,.32439511E-3,.62409E-3,0
STARLINK-37620,2026-115D,2026-06-04T06:00:04.000320,15.80811422,.00009758,97.2830,171.9900,109.1009,216.4890,0,U,69214,999,261,.20813526E-3,.39899E-3,0
STARLINK-37700,2026-115E,2026-06-04T06:00:04.000320,15.79048434,.00014032,97.2840,171.9901,98.8604,229.8797,0,U,69215,999,261,-.16400183E-1,-.2488182E-1,0
STARLINK-37766,2026-115F,2026-06-04T06:00:04.000320,15.80822950,.00014295,97.2828,171.9931,100.2437,233.8903,0,U,69216,999,261,.4880406E-4,.9219E-4,0
STARLINK-37763,2026-115G,2026-06-04T06:00:04.000320,15.80823136,.00009522,97.2827,171.9948,106.3084,231.4296,0,U,69217,999,261,.15715079E-3,.30073E-3,0
STARLINK-37724,2026-115H,2026-06-04T06:00:04.000320,15.80815932,.00012246,97.2832,171.9967,97.7688,244.7367,0,U,69218,999,261,.15163705E-3,.29E-3,0
STARLINK-37758,2026-115J,2026-06-04T06:00:04.000320,15.80817306,.00007837,97.2823,172.0048,79.1745,281.5891,0,U,69219,999,261,.23260402E-4,.4316E-4,0
STARLINK-37201,2026-115K,2026-06-04T06:00:04.000320,15.80840114,.00013329,97.2833,172.0015,104.5699,249.1495,0,U,69220,999,261,-.14107436E-3,-.2711E-3,0
STARLINK-37728,2026-115L,2026-06-04T06:00:04.000320,15.80858203,.00013461,97.2829,172.0081,86.0415,281.4092,0,U,69221,999,261,-.12586102E-3,-.2423E-3,0
STARLINK-37760,2026-115M,2026-06-04T06:00:04.000320,15.80830815,.00012294,97.2833,172.0012,95.3900,256.4879,0,U,69222,999,261,.41500792E-4,.782E-4,0
STARLINK-37759,2026-115N,2026-06-04T06:00:04.000320,15.80824671,.00007168,97.2825,172.0094,79.3487,292.2251,0,U,69223,999,261,.6846595E-5,.117E-4,0
STARLINK-37725,2026-115P,2026-06-04T06:00:04.000320,15.80864303,.00006744,97.2829,172.0078,86.4043,281.9162,0,U,69224,999,261,-.44277932E-3,-.84321E-3,0
STARLINK-37770,2026-115Q,2026-06-04T06:00:04.000320,15.80815743,.00010651,97.2832,172.0064,92.4255,272.4730,0,U,69225,999,261,.16360293E-3,.31307E-3,0
STARLINK-37736,2026-115R,2026-06-04T06:00:04.000320,15.80818509,.00004602,97.2832,172.0081,101.2548,267.7027,0,U,69226,999,261,.60186211E-4,.11403E-3,0
STARLINK-37737,2026-115S,2026-06-04T06:00:04.000320,15.80802648,.00011659,97.2827,172.0129,88.8167,291.4876,0,U,69227,999,263,.32950839E-3,.63395E-3,0
STARLINK-37618,2026-115T,2026-06-04T06:00:04.000320,15.80845310,.00012506,97.2826,172.0216,80.7880,320.2861,0,U,69228,999,261,-.34657556E-3,-.66115E-3,0
STARLINK-37679,2026-115U,2026-06-04T06:00:04.000320,15.80783152,.00011518,97.2823,172.0182,104.1473,288.5412,0,U,69229,999,261,.37047605E-3,.71296E-3,0
STARLINK-37746,2026-115V,2026-06-04T06:00:04.000320,15.80813750,.00007994,97.2829,172.0144,82.4180,301.5178,0,U,69230,999,261,.15071703E-3,.28819E-3,0
STARLINK-37557,2026-115W,2026-06-04T06:00:04.000320,15.80843209,.00011026,97.2828,172.0222,78.4722,323.6682,0,U,69231,999,261,-.3189453E-3,-.60885E-3,0
