STARLINK-37649          
1 69202U 26114W   26155.25004630 -.01722180  00000+0 -79109-2 0  9992
2 69202  53.1575 266.9389 0001076  66.0571  77.6145 15.85953047  2738
STARLINK-37604          
1 69203U 26114X   26155.25004630 -.01720930  00000+0 -78559-2 0  9992
2 69203  53.1575 266.9312 0001000  79.5251  67.8221 15.86078450  2739
STARLINK-37669          
1 69204U 26114Y   26155.25004630 -.01724193  00000+0 -78264-2 0  9991
2 69204  53.1575 266.9233 0001017  74.5924  76.4663 15.86198946  2731
STARLINK-37691          
1 69205U 26114Z   26155.25004630 -.01731448  00000+0 -77209-2 0  9991
2 69205  53.1575 266.9003 0000938  78.9544  83.0854 15.86572163  2737
STARLINK-37671          
1 69206U 26114AA  26155.25004630 -.01730626  00000+0 -77625-2 0  9991
2 69206  53.1574 266.9080 0000975  76.2803  82.0937 15.86452317  2731
STARLINK-37647          
1 69207U 26114AB  26155.25004630 -.01728688  00000+0 -78075-2 0  9997
2 69207  53.1575 266.9153 0001137  77.2239  77.6104 15.86307147  2735
STARLINK-37562          
1 69208U 26114AC  26155.25004630 -.01710109  00000+0 -75738-2 0  9990
2 69208  53.1575 266.8925 0000921  75.0626  90.6537 15.86670101  2736
STARLINK-37682          
1 69209U 26114AD  26155.25004630 -.01730639  00000+0 -76214-2 0  9991
2 69209  53.1575 266.8848 0001102  74.7066  94.5830 15.86820006  2737
STARLINK-37402          
1 69210U 26114AE  26155.25004630 -.01728233  00000+0 -75569-2 0  9992
2 69210  53.1572 266.8779 0000908  75.4833  97.2721 15.86960852  2735
STARLINK-37613          
1 69211U 26115A   26155.25004630  .00036114  00000+0  18848-3 0  9999
2 69211  97.2833 171.9876 0000896 101.2991 218.3585 15.80819184  2614
STARLINK-37713          
1 69212U 26115B   26155.25004630  .00005565  00000+0  29763-4 0  9995
2 69212  97.2827 171.9885 0001545 101.7519 219.5708 15.80823963  2611
STARLINK-37716          
1 69213U 26115C   26155.25004630  .00062409  00000+0  32440-3 0  9991
2 69213  97.2832 171.9869 0001269  97.3896 219.6566 15.80804850  2618
STARLINK-37620          
1 69214U 26115D   26155.25004630  .00039899  00000+0  20814-3 0  9991
2 69214  97.2830 171.9900 0000975 109.1009 216.4890 15.80811422  2612
STARLINK-37700          
1 69215U 26115E   26155.25004630 -.02488182  00000+0 -16400-1 0  9993
2 69215  97.2840 171.9901 0001403  98.8604 229.8797 15.79048434  2614
STARLINK-37766          
1 69216U 26115F   26155.25004630  .00009219  00000+0  48804-4 0  9996
2 69216  97.2828 171.9931 0001429 100.2437 233.8903 15.80822950  2613
STARLINK-37763          
1 69217U 26115G   26155.25004630  .00030073  00000+0  15715-3 0  9993
2 69217  97.2827 171.9948 0000952 106.3084 231.4296 15.80823136  2612
STARLINK-37724          
1 69218U 26115H   26155.25004630  .00029000  00000+0  15164-3 0  9990
2 69218  97.2832 171.9967 0001224  97.7688 244.7367 15.80815932  2617
STARLINK-37758          
1 69219U 26115J   26155.25004630  .00004316  00000+0  23260-4 0  9991
2 69219  97.2823 172.0048 0000783  79.1745 281.5891 15.80817306  2615
STARLINK-37201          
1 69220U 26115K   26155.25004630 -.00027110  00000+0 -14107-3 0  9991
2 69220  97.2833 172.0015 0001332 104.5699 249.1495 15.80840114  2617
STARLINK-37728          
1 69221U 26115L   26155.25004630 -.00024230  00000+0 -12586-3 0  9991
2 69221  97.2829 172.0081 0001346  86.0415 281.4092 15.80858203  2611
STARLINK-37760          
1 69222U 26115M   26155.25004630  .00007820  00000+0  41501-4 0  9996
2 69222  97.2833 172.0012 0001229  95.3900 256.4879 15.80830815  2617
STARLINK-37759          
1 69223U 26115N   26155.25004630  .00001170  00000+0  68466-5 0  9999
2 69223  97.2825 172.0094 0000716  79.3487 292.2251 15.80824671  2616
STARLINK-37725          
1 69224U 26115P   26155.25004630 -.00084321  00000+0 -44278-3 0  9994
2 69224  97.2829 172.0078 0000674  86.4043 281.9162 15.80864303  2615
STARLINK-37770          
1 69225U 26115Q   26155.25004630  .00031307  00000+0  16360-3 0  9990
2 69225  97.2832 172.0064 0001065  92.4255 272.4730 15.80815743  2612
STARLINK-37736          
1 69226U 26115R   26155.25004630  .00011403  00000+0  60186-4 0  9992
2 69226  97.2832 172.0081 0000460 101.2548 267.7027 15.80818509  2613
STARLINK-37737          
1 69227U 26115S   26155.25004630  .00063395  00000+0  32951-3 0  9998
2 69227  97.2827 172.0129 0001165  88.8167 291.4876 15.80802648  2636
STARLINK-37618          
1 69228U 26115T   26155.25004630 -.00066115  00000+0 -34658-3 0  9990
2 69228  97.2826 172.0216 0001250  80.7880 320.2861 15.80845310  2617
STARLINK-37679          
1 69229U 26115U   26155.25004630  .00071296  00000+0  37048-3 0  9991
2 69229  97.2823 172.0182 0001151 104.1473 288.5412 15.80783152  2619
STARLINK-37746          
1 69230U 26115V   26155.25004630  .00028819  00000+0  15072-3 0  9999
2 69230  97.2829 172.0144 0000799  82.4180 301.5178 15.80813750  2618
STARLINK-37557          
1 69231U 26115W   26155.25004630 -.00060885  00000+0 -31895-3 0  9992
2 69231  97.2828 172.0222 0001102  78.4722 323.6682 15.80843209  2618
